{
  "norad_id": 59233,
  "name": "STARLINK-31459",
  "history": [
    {
      "epoch": "2026-05-04T10:45:43.255584Z",
      "apogee_km": 483.895022326682,
      "perigee_km": 482.251762437706,
      "latitude_deg": -1.121023670641248e-05,
      "longitude_deg": 164.87045197026973,
      "height_km": 483.0146104537932,
      "semi_major_axis_km": 6861.210392382193,
      "eccentricity": 0.00011975,
      "inclination_deg": 42.998,
      "raan_deg": 188.6383,
      "arg_perigee_deg": 258.4185,
      "mean_anomaly_deg": 101.6532,
      "mean_motion_rev_day": 15.27571886
    },
    {
      "epoch": "2026-05-05T10:18:02.030688Z",
      "apogee_km": 483.6465936283912,
      "perigee_km": 482.3498390725008,
      "latitude_deg": 8.770955056744436e-06,
      "longitude_deg": 165.28414621245153,
      "height_km": 483.2123679481155,
      "semi_major_axis_km": 6861.135216350445,
      "eccentricity": 9.45e-05,
      "inclination_deg": 42.9948,
      "raan_deg": 183.0969,
      "arg_perigee_deg": 227.4192,
      "mean_anomaly_deg": 132.658,
      "mean_motion_rev_day": 15.27596992
    },
    {
      "epoch": "2026-05-06T12:58:44.325120Z",
      "apogee_km": 483.94499243250993,
      "perigee_km": 482.2476605322054,
      "latitude_deg": 1.2092807489754184e-06,
      "longitude_deg": 117.74046350597997,
      "height_km": 482.90485400861616,
      "semi_major_axis_km": 6861.233326482357,
      "eccentricity": 0.00012369,
      "inclination_deg": 43.0016,
      "raan_deg": 176.8251,
      "arg_perigee_deg": 267.8534,
      "mean_anomaly_deg": 92.2176,
      "mean_motion_rev_day": 15.27564227
    },
    {
      "epoch": "2026-05-07T12:31:04.606176Z",
      "apogee_km": 483.82432388784036,
      "perigee_km": 482.27095168584583,
      "latitude_deg": 2.6563592339141623e-05,
      "longitude_deg": 118.15137156539737,
      "height_km": 482.9809847653983,
      "semi_major_axis_km": 6861.184637786843,
      "eccentricity": 0.0001132,
      "inclination_deg": 43.0024,
      "raan_deg": 171.2872,
      "arg_perigee_deg": 258.3642,
      "mean_anomaly_deg": 101.7083,
      "mean_motion_rev_day": 15.27580487
    },
    {
      "epoch": "2026-05-08T12:03:25.350336Z",
      "apogee_km": 483.9500410423352,
      "perigee_km": 482.1894553907432,
      "latitude_deg": 7.865828512118437e-06,
      "longitude_deg": 118.55919825169738,
      "height_km": 482.79156850372135,
      "semi_major_axis_km": 6861.2067482165385,
      "eccentricity": 0.0001283,
      "inclination_deg": 43.0023,
      "raan_deg": 165.7482,
      "arg_perigee_deg": 273.5851,
      "mean_anomaly_deg": 86.4854,
      "mean_motion_rev_day": 15.27573103
    },
    {
      "epoch": "2026-05-09T11:35:45.673728Z",
      "apogee_km": 483.9353758325615,
      "perigee_km": 482.14872480785834,
      "latitude_deg": 2.202551912696291e-05,
      "longitude_deg": 118.96881869201,
      "height_km": 482.76676684564205,
      "semi_major_axis_km": 6861.179050320209,
      "eccentricity": 0.0001302,
      "inclination_deg": 43.0023,
      "raan_deg": 160.2092,
      "arg_perigee_deg": 273.3475,
      "mean_anomaly_deg": 86.7228,
      "mean_motion_rev_day": 15.27582353
    },
    {
      "epoch": "2026-05-10T07:59:48.353856Z",
      "apogee_km": 483.90412203560936,
      "perigee_km": 482.20940717575104,
      "latitude_deg": -2.5596809988165018e-05,
      "longitude_deg": 167.31897055071732,
      "height_km": 482.7816637543968,
      "semi_major_axis_km": 6861.19376460568,
      "eccentricity": 0.0001235,
      "inclination_deg": 43.0027,
      "raan_deg": 155.4084,
      "arg_perigee_deg": 273.5165,
      "mean_anomaly_deg": 86.5545,
      "mean_motion_rev_day": 15.27577439
    },
    {
      "epoch": "2026-05-11T18:31:14.830752Z",
      "apogee_km": 483.8714303215038,
      "perigee_km": 482.2700244379339,
      "latitude_deg": -4.082902917600066e-05,
      "longitude_deg": -0.08271803304329593,
      "height_km": 482.7644503046967,
      "semi_major_axis_km": 6861.207727379719,
      "eccentricity": 0.0001167,
      "inclination_deg": 43.0017,
      "raan_deg": 147.2849,
      "arg_perigee_deg": 275.9487,
      "mean_anomaly_deg": 84.1231,
      "mean_motion_rev_day": 15.27572776
    },
    {
      "epoch": "2026-05-12T18:03:35.556768Z",
      "apogee_km": 484.04899133083563,
      "perigee_km": 482.08119857000383,
      "latitude_deg": 4.310477925894098e-05,
      "longitude_deg": 0.32449733055555796,
      "height_km": 482.8649817992667,
      "semi_major_axis_km": 6861.202094950419,
      "eccentricity": 0.0001434,
      "inclination_deg": 43.0034,
      "raan_deg": 141.7451,
      "arg_perigee_deg": 268.673,
      "mean_anomaly_deg": 91.3958,
      "mean_motion_rev_day": 15.27574657
    },
    {
      "epoch": "2026-05-13T09:45:08.962272Z",
      "apogee_km": 484.05611102147213,
      "perigee_km": 482.0398831982202,
      "latitude_deg": -2.068925600314882e-05,
      "longitude_deg": 120.59786739872177,
      "height_km": 482.80736886193523,
      "semi_major_axis_km": 6861.184997109845,
      "eccentricity": 0.00014693,
      "inclination_deg": 43.0033,
      "raan_deg": 138.0522,
      "arg_perigee_deg": 271.0094,
      "mean_anomaly_deg": 89.0589,
      "mean_motion_rev_day": 15.27580367
    }
  ]
}